stk.v.4.3 

BEGIN Ephemeris 
 
NumberOfEphemerisPoints		146 
ScenarioEpoch	    3 Sep 2020 20:37:35.701518059 
InterpolationMethod		Lagrange 
InterpolationOrder		5 
CentralBody				Earth 
CoordinateSystem			TEME 
CoordinateSystemEpoch	  3 Sep 2020 20:37:35.701518059 
DistanceUnit			Kilometers 
 
EphemerisTimePosVel 
 
       0.00000000   -7089.78523406    -991.80187313       0.04485993  0.074516419 -0.462065687  7.448825206
 END Ephemeris 
